NORAD_CAT_ID,OBJECT_NAME,OBJECT_TYPE,EPOCH,MEAN_MOTION,ECCENTRICITY,INCLINATION,RA_OF_ASC_NODE,ARG_OF_PERICENTER,MEAN_ANOMALY,BSTAR,MEAN_MOTION_DOT,MEAN_MOTION_DDOT,TLE_LINE0,TLE_LINE1,TLE_LINE2,SEMIMAJOR_AXIS,PERIOD,APOGEE,PERIGEE,DECAYED
51875.0,STARLINK-3585,PAYLOAD,2024-06-23 12:58:55,15.08817555,0.0001814,53.2181,290.9462,129.4139,230.7014,0.00033192,4.995e-05,0.0,0 STARLINK-3585,1 51875U 22022Z   24175.54092589  .00004995  00000-0  33192-3 0  9993,2 51875  53.2181 290.9462 0001814 129.4139 230.7014 15.08817555128893,6917.949,95.439,541.069,538.559,0.0
51875.0,STARLINK-3585,PAYLOAD,2024-06-23 17:45:04,15.08845821,0.0001549,53.2177,290.0535,127.6486,232.4647,4.038e-06,-2.24e-06,0.0,0 STARLINK-3585,1 51875U 22022Z   24175.73963993 -.00000224  00000-0  40380-5 0  9991,2 51875  53.2177 290.0535 0001549 127.6486 232.4647 15.08845821128922,6917.863,95.437,540.799,538.656,0.0
51875.0,STARLINK-3585,PAYLOAD,2024-06-24 12:49:42,15.08845706,0.0001331,53.2173,286.4846,105.7182,254.3957,7.5584e-05,9.15e-06,0.0,0 STARLINK-3585,1 51875U 22022Z   24176.53451782  .00000915  00000-0  75584-4 0  9997,2 51875  53.2173 286.4846 0001331 105.7182 254.3957 15.08845706129044,6917.863,95.437,540.649,538.807,0.0
51875.0,STARLINK-3585,PAYLOAD,2024-06-25 12:40:29,15.08838046,0.0001228,53.2176,282.0237,97.773,262.3402,2.2413e-05,6.9e-07,0.0,0 STARLINK-3585,1 51875U 22022Z   24177.52812467  .00000069  00000-0  22413-4 0  9991,2 51875  53.2176 282.0237 0001228  97.7730 262.3402 15.08838046129196,6917.886,95.438,540.601,538.902,0.0
51875.0,STARLINK-3585,PAYLOAD,2024-06-25 15:51:16,15.08835944,0.0001237,53.2173,281.4293,93.8909,266.2224,5.2081e-06,-2.05e-06,0.0,0 STARLINK-3585,1 51875U 22022Z   24177.66060679 -.00000205  00000-0  52081-5 0  9994,2 51875  53.2173 281.4293 0001237  93.8909 266.2224 15.08835944129215,6917.893,95.438,540.614,538.902,0.0
51875.0,STARLINK-3585,PAYLOAD,2024-06-26 10:55:56,15.08817177,0.000197,53.2183,277.8569,127.9624,232.1546,-0.00016472,-2.907e-05,0.0,0 STARLINK-3585,1 51875U 22022Z   24178.45551190 -.00002907  00000-0 -16472-3 0  9999,2 51875  53.2183 277.8569 0001970 127.9624 232.1546 15.08817177129338,6917.95,95.439,541.178,538.452,0.0
51875.0,STARLINK-3585,PAYLOAD,2024-06-27 12:22:03,15.08851955,0.0001379,53.2167,273.1041,98.3639,261.7509,0.00021631,3.157e-05,0.0,0 STARLINK-3585,1 51875U 22022Z   24179.51531998  .00003157  00000-0  21631-3 0  9990,2 51875  53.2167 273.1041 0001379  98.3639 261.7509 15.08851955129490,6917.844,95.437,540.663,538.755,0.0
51875.0,STARLINK-3585,PAYLOAD,2024-06-27 18:43:35,15.08864661,0.0001331,53.2172,271.9125,97.287,262.8273,0.00033823,5.103e-05,0.0,0 STARLINK-3585,1 51875U 22022Z   24179.78026641  .00005103  00000-0  33823-3 0  9992,2 51875  53.2172 271.9125 0001331  97.2870 262.8273 15.08864661129531,6917.805,95.436,540.591,538.749,0.0
51875.0,STARLINK-3585,PAYLOAD,2024-06-27 23:29:47,15.08826212,0.000102,53.217,271.0221,112.3959,247.7141,2.0785e-05,4.3e-07,0.0,0 STARLINK-3585,1 51875U 22022Z   24179.97901762  .00000043  00000-0  20785-4 0  9991,2 51875  53.2170 271.0221 0001020 112.3959 247.7141 15.08826212129568,6917.923,95.438,540.493,539.082,0.0
51875.0,STARLINK-3585,PAYLOAD,2024-06-28 12:12:51,15.08852477,9.14e-05,53.2172,268.6446,93.3674,266.7422,-2.0462e-05,-6.13e-06,0.0,0 STARLINK-3585,1 51875U 22022Z   24180.50892850 -.00000613  00000-0 -20462-4 0  9996,2 51875  53.2172 268.6446 0000914  93.3674 266.7422 15.08852477129648,6917.842,95.437,540.34,539.075,0.0
51875.0,STARLINK-3585,PAYLOAD,2024-06-29 12:03:38,15.08849871,0.000134,53.2173,264.1834,87.8127,272.3019,-0.00020467,-3.545e-05,0.0,0 STARLINK-3585,1 51875U 22022Z   24181.50253091 -.00003545  00000-0 -20467-3 0  9996,2 51875  53.2173 264.1834 0001340  87.8127 272.3019 15.08849871129791,6917.85,95.437,540.642,538.788,0.0
51875.0,STARLINK-3585,PAYLOAD,2024-06-30 05:32:53,15.08831084,8.36e-05,53.2177,260.9131,98.0018,262.1069,0.00014043,1.947e-05,0.0,0 STARLINK-3585,1 51875U 22022Z   24182.23117132  .00001947  00000-0  14043-3 0  9997,2 51875  53.2177 260.9131 0000836  98.0018 262.1069 15.08831084129903,6917.908,95.438,540.351,539.194,0.0
51875.0,STARLINK-3585,PAYLOAD,2024-06-30 11:54:25,15.08841786,0.0001271,53.2164,259.7236,88.9275,271.1862,0.00019171,2.765e-05,0.0,0 STARLINK-3585,1 51875U 22022Z   24182.49613014  .00002765  00000-0  19171-3 0  9991,2 51875  53.2164 259.7236 0001271  88.9275 271.1862 15.08841786129943,6917.875,95.437,540.619,538.861,0.0
51875.0,STARLINK-3585,PAYLOAD,2024-07-01 05:23:40,15.08831562,0.000134,53.2157,256.4515,85.4812,274.6334,0.00035299,5.333e-05,0.0,0 STARLINK-3585,1 51875U 22022Z   24183.22477748  .00005333  00000-0  35299-3 0  9998,2 51875  53.2157 256.4515 0001340  85.4812 274.6334 15.08831562130052,6917.906,95.438,540.698,538.844,0.0
51875.0,STARLINK-3585,PAYLOAD,2024-07-01 11:45:13,15.08837273,0.0001274,53.2157,255.2621,84.4774,275.6363,0.00037584,5.698e-05,0.0,0 STARLINK-3585,1 51875U 22022Z   24183.48973563  .00005698  00000-0  37584-3 0  9995,2 51875  53.2157 255.2621 0001274  84.4774 275.6363 15.08837273130091,6917.889,95.438,540.635,538.872,0.0
51875.0,STARLINK-3585,PAYLOAD,2024-07-01 14:55:58,15.08845454,0.0001323,53.2157,254.667,82.511,277.6032,0.0002346,3.448e-05,0.0,0 STARLINK-3585,1 51875U 22022Z   24183.62221026  .00003448  00000-0  23460-3 0  9990,2 51875  53.2157 254.6670 0001323  82.5110 277.6032 15.08845454130114,6917.864,95.437,540.644,538.813,0.0
51875.0,STARLINK-3585,PAYLOAD,2024-07-01 21:17:32,15.08836829,0.0001668,53.2154,253.4777,83.0913,277.0269,9.2644e-05,1.187e-05,0.0,0 STARLINK-3585,1 51875U 22022Z   24183.88717600  .00001187  00000-0  92644-4 0  9995,2 51875  53.2154 253.4777 0001668  83.0913 277.0269 15.08836829130151,6917.89,95.438,540.909,538.601,0.0
51875.0,STARLINK-3585,PAYLOAD,2024-07-02 05:14:27,15.08839109,0.0001333,53.215,251.9908,88.123,271.9915,1.9508e-05,2.3e-07,0.0,0 STARLINK-3585,1 51875U 22022Z   24184.21837350  .00000023  00000-0  19508-4 0  9994,2 51875  53.2150 251.9908 0001333  88.1230 271.9915 15.08839109130204,6917.883,95.438,540.67,538.826,0.0
51875.0,STARLINK-3585,PAYLOAD,2024-07-02 10:00:36,15.08840983,0.0001311,53.2155,251.0995,89.2784,270.8358,4.2797e-05,3.93e-06,0.0,0 STARLINK-3585,1 51875U 22022Z   24184.41709243  .00000393  00000-0  42797-4 0  9991,2 51875  53.2155 251.0995 0001311  89.2784 270.8358 15.08840983130232,6917.877,95.437,540.649,538.835,0.0
51875.0,STARLINK-3585,PAYLOAD,2024-07-03 11:26:47,15.08835995,0.000123,53.2154,246.3435,89.0934,271.0199,-1.538e-06,-3.12e-06,0.0,0 STARLINK-3585,1 51875U 22022Z   24185.47693581 -.00000312  00000-0 -15380-5 0  9997,2 51875  53.2154 246.3435 0001230  89.0934 271.0199 15.08835995130392,6917.893,95.438,540.609,538.907,0.0
51875.0,STARLINK-3585,PAYLOAD,2024-07-03 20:59:05,15.08840077,0.0001293,53.2156,244.5588,88.2211,271.8929,3.8561e-05,3.26e-06,0.0,0 STARLINK-3585,1 51875U 22022Z   24185.87437413  .00000326  00000-0  38561-4 0  9999,2 51875  53.2156 244.5588 0001293  88.2211 271.8929 15.08840077130454,6917.88,95.438,540.64,538.851,0.0
51875.0,STARLINK-3585,PAYLOAD,2024-07-04 12:52:57,15.08845551,0.0001432,53.2147,241.5841,94.0826,266.033,0.00010329,1.357e-05,0.0,0 STARLINK-3585,1 51875U 22022Z   24186.53677198  .00001357  00000-0  10329-3 0  9995,2 51875  53.2147 241.5841 0001432  94.0826 266.0330 15.08845551130550,6917.863,95.437,540.719,538.738,0.0
51875.0,STARLINK-3585,PAYLOAD,2024-07-04 20:49:53,15.08838636,0.0001289,53.2143,240.0966,85.1323,274.9817,0.00021466,3.13e-05,0.0,0 STARLINK-3585,1 51875U 22022Z   24186.86797629  .00003130  00000-0  21466-3 0  9998,2 51875  53.2143 240.0966 0001289  85.1323 274.9817 15.08838636130601,6917.885,95.438,540.641,538.858,0.0
51875.0,STARLINK-3585,PAYLOAD,2024-07-05 11:08:21,15.08843998,0.0001372,53.2144,237.4207,82.814,277.3008,0.00013363,1.84e-05,0.0,0 STARLINK-3585,1 51875U 22022Z   24187.46413349  .00001840  00000-0  13363-3 0  9992,2 51875  53.2144 237.4207 0001372  82.8140 277.3008 15.08843998130699,6917.868,95.437,540.682,538.784,0.0
51875.0,STARLINK-3585,PAYLOAD,2024-07-05 20:40:40,15.08839402,0.0001367,53.2144,235.6368,84.1071,276.0077,0.00020803,3.024e-05,0.0,0 STARLINK-3585,1 51875U 22022Z   24187.86157633  .00003024  00000-0  20803-3 0  9990,2 51875  53.2144 235.6368 0001367  84.1071 276.0077 15.08839402130753,6917.882,95.438,540.693,538.802,0.0
51875.0,STARLINK-3585,PAYLOAD,2024-07-06 09:23:45,15.08841461,0.0001367,53.2162,233.2584,82.277,277.8378,-4.5391e-06,-3.6e-06,0.0,0 STARLINK-3585,1 51875U 22022Z   24188.39149802 -.00000360  00000-0 -45391-5 0  9991,2 51875  53.2162 233.2584 0001367  82.2770 277.8378 15.08841461130832,6917.876,95.437,540.687,538.795,0.0
51875.0,STARLINK-3585,PAYLOAD,2024-07-06 20:31:27,15.0884336,0.0001347,53.2159,231.1772,84.3839,275.7307,1.9433e-05,2.1e-07,0.0,0 STARLINK-3585,1 51875U 22022Z   24188.85517474  .00000021  00000-0  19433-4 0  9995,2 51875  53.2159 231.1772 0001347  84.3839 275.7307 15.08843360130908,6917.87,95.437,540.667,538.803,0.0
51875.0,STARLINK-3585,PAYLOAD,2024-07-07 09:14:32,15.0884241,0.0001421,53.2166,228.7967,92.7305,267.385,4.7156e-05,4.63e-06,0.0,0 STARLINK-3585,1 51875U 22022Z   24189.38509400  .00000463  00000-0  47156-4 0  9997,2 51875  53.2166 228.7967 0001421  92.7305 267.3850 15.08842410130981,6917.873,95.437,540.721,538.755,0.0
51875.0,STARLINK-3585,PAYLOAD,2024-07-08 09:05:19,15.08838294,0.0001347,53.2158,224.3374,88.1282,271.9864,6.9116e-05,8.12e-06,0.0,0 STARLINK-3585,1 51875U 22022Z   24190.37869615  .00000812  00000-0  69116-4 0  9993,2 51875  53.2158 224.3374 0001347  88.1282 271.9864 15.08838294131135,6917.886,95.438,540.682,538.819,0.0
51875.0,STARLINK-3585,PAYLOAD,2024-07-09 08:56:06,15.08840996,0.0001352,53.2159,219.8769,90.6053,269.5094,6.0638e-05,6.77e-06,0.0,0 STARLINK-3585,1 51875U 22022Z   24191.37229489  .00000677  00000-0  60638-4 0  9992,2 51875  53.2159 219.8769 0001352  90.6053 269.5094 15.08840996131289,6917.877,95.437,540.678,538.807,0.0
